NORAD_CAT_ID,OBJECT_NAME,OBJECT_TYPE,EPOCH,MEAN_MOTION,ECCENTRICITY,INCLINATION,RA_OF_ASC_NODE,ARG_OF_PERICENTER,MEAN_ANOMALY,BSTAR,MEAN_MOTION_DOT,MEAN_MOTION_DDOT,TLE_LINE0,TLE_LINE1,TLE_LINE2,SEMIMAJOR_AXIS,PERIOD,APOGEE,PERIGEE,DECAYED
53888.0,STARLINK-5034,PAYLOAD,2022-11-03 04:00:00,15.73208246,0.0003312,53.2165,59.0143,16.8482,195.3911,0.00047968,0.00067278,0.0,0 STARLINK-5034,1 53888U 22119C   22307.16667824  .00067278  00000-0  47968-3 0  9998,2 53888  53.2165  59.0143 0003312  16.8482 195.3911 15.73208246  6605,6727.871999999999,91.533,351.965,347.5080000000001,0.0
53888.0,STARLINK-5034,PAYLOAD,2022-11-03 14:00:01,15.7339543,0.0003642,53.2169,56.9447,3.2285,50.178,-0.0021207,-0.00290796,0.0,0 STARLINK-5034,1 53888U 22119C   22307.58334491 -.00290796  00000-0 -21207-2 0  9997,2 53888  53.2169  56.9447 0003642   3.2285  50.1780 15.73395430  6670,6727.3380000000025,91.522,351.653,346.75300000000016,0.0
53888.0,STARLINK-5034,PAYLOAD,2022-11-03 22:00:00,15.73071192,0.0002953,53.2167,55.2854,340.222,162.2807,-0.0039448,-0.00518803,0.0,0 STARLINK-5034,1 53888U 22119C   22307.91667824 -.00518803  00000-0 -39448-2 0  9991,2 53888  53.2167  55.2854 0002953 340.2220 162.2807 15.73071192  6726,6728.262,91.541,352.11400000000015,348.141,0.0
53888.0,STARLINK-5034,PAYLOAD,2022-11-04 06:00:00,15.72787141,0.0003642,53.2173,53.6298,292.2267,298.8375,-0.0092839,-0.01142509,0.0,0 STARLINK-5034,1 53888U 22119C   22308.25001157 -.01142509  00000-0 -92839-2 0  9990,2 53888  53.2173  53.6298 0003642 292.2267 298.8375 15.72787141  6778,6729.073,91.557,353.38800000000015,348.487,0.0
53888.0,STARLINK-5034,PAYLOAD,2022-11-04 14:00:01,15.7196908,0.0006211,53.2172,51.9844,274.8531,44.1309,-0.0095516,-0.01137386,0.0,0 STARLINK-5034,1 53888U 22119C   22308.58334491 -.01137386  00000-0 -95516-2 0  9998,2 53888  53.2172  51.9844 0006211 274.8531  44.1309 15.71969080  1306,6731.406999999997,91.605,357.45300000000015,349.091,0.0
53888.0,STARLINK-5034,PAYLOAD,2022-11-04 22:00:01,15.711499900000002,0.0006742,53.2172,50.3382,271.0381,134.9545,-0.0097838,-0.01126738,0.0,0 STARLINK-5034,1 53888U 22119C   22308.91668981 -.01126738  00000-0 -97838-2 0  9997,2 53888  53.2172  50.3382 0006742 271.0381 134.9545 15.71149990  6885,6733.746,91.653,360.151,351.071,0.0
53888.0,STARLINK-5034,PAYLOAD,2022-11-05 04:00:00,15.70535139,5.12e-05,53.2172,49.104,157.8483,222.6461,-0.0099864,-0.01117695,0.0,0 STARLINK-5034,1 53888U 22119C   22309.16667824 -.01117695  00000-0 -99864-2 0  9993,2 53888  53.2172  49.1040 0000512 157.8483 222.6461 15.70535139  6914,6735.504,91.688,357.713,357.024,0.0
53888.0,STARLINK-5034,PAYLOAD,2022-11-05 14:00:01,15.69325548,0.0005451,53.2175,47.0532,264.311,312.7188,-0.007743,-0.0083732999999999,0.0,0 STARLINK-5034,1 53888U 22119C   22309.58335648 -.00837330  00000-0 -77430-2 0  9994,2 53888  53.2175  47.0532 0005451 264.3110 312.7188 15.69325548  1302,6738.964,91.759,364.503,357.156,0.0
53888.0,STARLINK-5034,PAYLOAD,2022-11-05 22:00:01,15.67929966,0.0007407999999999,53.2183,45.412,268.1169,33.2263,-0.00017979,-0.00020805,0.0,0 STARLINK-5034,1 53888U 22119C   22309.91668981 -.00020805  00000-0 -17979-3 0  9994,2 53888  53.2183  45.4120 0007408 268.1169  33.2263 15.67929966  7033,6742.962,91.841,369.823,359.832,0.0
53888.0,STARLINK-5034,PAYLOAD,2022-11-06 06:00:00,15.67889457,0.0006559,53.2175,43.7746,269.72900000000004,114.1866,-0.011085,-0.01114899,0.0,0 STARLINK-5034,1 53888U 22119C   22310.25001157 -.01114899  00000-0 -11085-1 0  9997,2 53888  53.2175  43.7746 0006559 269.7290 114.1866 15.67889457  7091,6743.078,91.843,369.366,360.521,0.0
53888.0,STARLINK-5034,PAYLOAD,2022-11-06 14:00:01,15.66242398,0.0002232,53.2182,42.1393,251.2258,215.1734,0.00050699,0.0005309,0.0,0 STARLINK-5034,1 53888U 22119C   22310.58334491  .00053090  00000-0  50699-3 0  9991,2 53888  53.2182  42.1393 0002232 251.2258 215.1734 15.66242398  1304,6747.805,91.94,371.176,368.164,0.0
53888.0,STARLINK-5034,PAYLOAD,2022-11-06 20:00:01,15.65265879,0.000686,53.2171,40.9148,274.7078,162.8013,0.0057006,0.00621873,0.0,0 STARLINK-5034,1 53888U 22119C   22310.83334491  .00621873  00000-0  57006-2 0  9997,2 53888  53.2171  40.9148 0006860 274.7078 162.8013 15.65265879  7185,6750.611,91.997,377.107,367.845,0.0
53888.0,STARLINK-5034,PAYLOAD,2022-11-07 06:00:00,15.6544219,7.57e-05,53.2174,38.8736,342.5945,284.5464,-0.012147,-0.01121543,0.0,0 STARLINK-5034,1 53888U 22119C   22311.25001157 -.01121543  00000-0 -12147-1 0  9992,2 53888  53.2174  38.8736 0000757 342.5945 284.5464 15.65442190  7245,6750.104,91.987,372.48,371.458,0.0
53888.0,STARLINK-5034,PAYLOAD,2022-11-07 14:00:01,15.64044706,0.0001486999999999,53.2176,37.2458,244.0026,102.5353,-0.0029108,-0.00271766,0.0,0 STARLINK-5034,1 53888U 22119C   22311.58334491 -.00271766  00000-0 -29108-2 0  9996,2 53888  53.2176  37.2458 0001487 244.0026 102.5353 15.64044706  7299,6754.125,92.069,376.994,374.985,0.0
53888.0,STARLINK-5034,PAYLOAD,2022-11-07 22:00:00,15.63826698,9.83e-05,53.2175,35.6173,157.5359,266.85900000000004,-0.013201,-0.01140623,0.0,0 STARLINK-5034,1 53888U 22119C   22311.91667824 -.01140623  00000-0 -13201-1 0  9996,2 53888  53.2175  35.6173 0000983 157.5359 266.8590 15.63826698  7352,6754.752,92.082,377.281,375.953,0.0
53888.0,STARLINK-5034,PAYLOAD,2022-11-08 06:00:00,15.63023455,0.000522,53.2178,33.9908,269.931,231.6229,-0.013862,-0.01160255,0.0,0 STARLINK-5034,1 53888U 22119C   22312.25001157 -.01160255  00000-0 -13862-1 0  9991,2 53888  53.2178  33.9908 0005220 269.9310 231.6229 15.63023455  7401,6757.066,92.129,382.458,375.404,0.0
53888.0,STARLINK-5034,PAYLOAD,2022-11-08 12:00:00,15.61282003,4.75e-05,53.217,32.7738,248.7711,220.6094,0.0053407,0.00490442,0.0,0 STARLINK-5034,1 53888U 22119C   22312.50001157  .00490442  00000-0  53407-2 0  9990,2 53888  53.2170  32.7738 0000475 248.7711 220.6094 15.61282003  7444,6762.09,92.232,384.276,383.634,0.0
53888.0,STARLINK-5034,PAYLOAD,2022-11-08 14:00:01,15.62090486,1.97e-05,53.2179,32.3688,209.7871,8.0055,-0.012095,-0.00975014,0.0,0 STARLINK-5034,1 53888U 22119C   22312.58334491 -.00975014  00000-0 -12095-1 0  9990,2 53888  53.2179  32.3688 0000197 209.7871   8.0055 15.62090486  1305,6759.755999999999,92.184,381.755,381.48800000000006,0.0
53888.0,STARLINK-5034,PAYLOAD,2022-11-08 22:00:00,15.61383308,0.0001055,53.2174,30.7459,109.3932,183.5567,-0.014488,-0.01137382,0.0,0 STARLINK-5034,1 53888U 22119C   22312.91667824 -.01137382  00000-0 -14488-1 0  9993,2 53888  53.2174  30.7459 0001055 109.3932 183.5567 15.61383308  7507,6761.797,92.226,384.376,382.949,0.0
53888.0,STARLINK-5034,PAYLOAD,2022-11-09 04:00:00,15.58512923,0.0002459,53.2171,29.5279,309.403,310.9562,0.018647,0.01612024,0.0,0 STARLINK-5034,1 53888U 22119C   22313.16667824  .01612024  00000-0  18647-1 0  9991,2 53888  53.2171  29.5279 0002459 309.4030 310.9562 15.58512923  7549,6770.097,92.396,393.627,390.297,0.0
53888.0,STARLINK-5034,PAYLOAD,2022-11-09 12:00:00,15.57769719,0.0002937,53.2183,27.9133,283.2258,50.4404,0.020827,0.01769569,0.0,0 STARLINK-5034,1 53888U 22119C   22313.50001157  .01769569  00000-0  20827-1 0  9990,2 53888  53.2183  27.9133 0002937 283.2258  50.4404 15.57769719  7597,6772.25,92.44,396.104,392.126,0.0
53888.0,STARLINK-5034,PAYLOAD,2022-11-09 14:00:01,15.58745549,0.0003931,53.2192,27.5082,283.312,157.644,0.004033,0.00329329,0.0,0 STARLINK-5034,1 53888U 22119C   22313.58334491  .00329329  00000-0  40330-2 0  9995,2 53888  53.2192  27.5082 0003931 283.3120 157.6440 15.58745549  1309,6769.424,92.382,393.95,388.628,0.0
53888.0,STARLINK-5034,PAYLOAD,2022-11-09 22:00:01,15.58528538,0.0001793,53.2186,25.8921,35.7947,117.1715,-0.0073948,-0.0053904,0.0,0 STARLINK-5034,1 53888U 22119C   22313.91668981 -.00539040  00000-0 -73948-2 0  9992,2 53888  53.2186  25.8921 0001793  35.7947 117.1715 15.58528538  7663,6770.052,92.395,393.131,390.703,0.0
53888.0,STARLINK-5034,PAYLOAD,2022-11-10 06:00:00,15.57279529,6.97e-05,53.2178,24.2768,14.2643,210.1825,0.00079268,0.00058803,0.0,0 STARLINK-5034,1 53888U 22119C   22314.25001157  .00058803  00000-0  79268-3 0  9999,2 53888  53.2178  24.2768 0000697  14.2643 210.1825 15.57279529  7717,6773.670999999999,92.469,396.009,395.064,0.0
53888.0,STARLINK-5034,PAYLOAD,2022-11-10 14:00:01,15.56585578,0.0001188,53.2169,22.6676,62.1084,232.5993,-0.0019118,-0.00136494,0.0,0 STARLINK-5034,1 53888U 22119C   22314.58334491 -.00136494  00000-0 -19118-2 0  9997,2 53888  53.2169  22.6676 0001188  62.1084 232.5993 15.56585578  1300,6775.684,92.51,398.354,396.745,0.0
53888.0,STARLINK-5034,PAYLOAD,2022-11-10 20:00:01,15.55641186,0.0001899,53.2169,21.4602,25.4834,231.5654,0.0036654,0.00264329,0.0,0 STARLINK-5034,1 53888U 22119C   22314.83334491  .00264329  00000-0  36654-2 0  9996,2 53888  53.2169  21.4602 0001899  25.4834 231.5654 15.55641186  7801,6778.426,92.566,401.579,399.004,0.0
53888.0,STARLINK-5034,PAYLOAD,2022-11-10 22:00:00,15.56112124,0.0001486,53.2176,21.0563,18.5994,345.2495,-0.0088358,-0.00584702,0.0,0 STARLINK-5034,1 53888U 22119C   22314.91667824 -.00584702  00000-0 -88358-2 0  9994,2 53888  53.2176  21.0563 0001486  18.5994 345.2495 15.56112124  1304,6777.059,92.538,399.931,397.917,0.0
53888.0,STARLINK-5034,PAYLOAD,2022-11-11 06:00:00,15.5568484,0.000174,53.2177,19.4483,31.6535,40.366,-0.017891,-0.01131346,0.0,0 STARLINK-5034,1 53888U 22119C   22315.25001157 -.01131346  00000-0 -17891-1 0  9999,2 53888  53.2177  19.4483 0001740  31.6535  40.3660 15.55684840  7870,6778.3,92.564,401.344,398.985,0.0
53888.0,STARLINK-5034,PAYLOAD,2022-11-11 14:00:01,15.54661946,0.0001784,53.2167,17.8453,46.4565,93.0461,-0.0134759999999999,-0.00832119,0.0,0 STARLINK-5034,1 53888U 22119C   22315.58334491 -.00832119  00000-0 -13476-1 0  9995,2 53888  53.2167  17.8453 0001784  46.4565  93.0461 15.54661946  1300,6781.272,92.625,404.347,401.92800000000005,0.0
